start=new Date('2023-01-14T00:00:00.000Z').valueOf();
sats=[{"COUNTRY_CODE":"US","LAUNCH_DATE":"2021-12-18","APOAPSIS":"541.602","GP_ID":"222974564","BSTAR":"0.00028321000000","REV_AT_EPOCH":"6306","CLASSIFICATION_TYPE":"U","OBJECT_NAME":"STARLINK-3254","TLE_LINE1":"1 50204U 21125BA  23013.94063579  .00004222  00000-0  28321-3 0  9993","OBJECT_TYPE":"PAYLOAD","MEAN_MOTION":"15.08839065","EPOCH":"2023-01-13T22:34:30.932256","FILE":"3743722","DECAY_DATE":null,"SITE":"AFWTR","NORAD_CAT_ID":"50204","TLE_LINE2":"2 50204  53.2174   5.0463 0002679  30.1515 329.9631 15.08839065 63065","PERIOD":"95.438","MEAN_MOTION_DOT":"0.00004222","OBJECT_ID":"2021-125BA","INCLINATION":"53.2174","ELEMENT_SET_NO":"999","MEAN_MOTION_DDOT":"0.0000000000000","SEMIMAJOR_AXIS":"6917.883","EPHEMERIS_TYPE":"0","RA_OF_ASC_NODE":"5.0463","ARG_OF_PERICENTER":"30.1515","MEAN_ANOMALY":"329.9631","PERIAPSIS":"537.895","REF_FRAME":"TEME","MEAN_ELEMENT_THEORY":"SGP4","ECCENTRICITY":"0.00026790","TIME_SYSTEM":"UTC","CENTER_NAME":"EARTH","RCS_SIZE":"LARGE"},{"INCLINATION":"53.2168","PERIOD":"95.438","TLE_LINE2":"2 50205  53.2168 336.4962 0001938  41.9852 318.1288 15.08833213 63387","OBJECT_ID":"2021-125BB","MEAN_MOTION_DOT":"0.00000169","NORAD_CAT_ID":"50205","SITE":"AFWTR","DECAY_DATE":null,"FILE":"3743722","EPOCH":"2023-01-13T14:48:14.373792","MEAN_MOTION":"15.08833213","OBJECT_TYPE":"PAYLOAD","TLE_LINE1":"1 50205U 21125BB  23013.61683303  .00000169  00000-0  28711-4 0  9991","CLASSIFICATION_TYPE":"U","OBJECT_NAME":"STARLINK-3260","REV_AT_EPOCH":"6338","BSTAR":"0.00002871100000","GP_ID":"222973818","APOAPSIS":"541.107","LAUNCH_DATE":"2021-12-18","COUNTRY_CODE":"US","RCS_SIZE":"LARGE","CENTER_NAME":"EARTH","TIME_SYSTEM":"UTC","ECCENTRICITY":"0.00019380","MEAN_ELEMENT_THEORY":"SGP4","REF_FRAME":"TEME","PERIAPSIS":"538.425","ARG_OF_PERICENTER":"41.9852","MEAN_ANOMALY":"318.1288","RA_OF_ASC_NODE":"336.4962","EPHEMERIS_TYPE":"0","SEMIMAJOR_AXIS":"6917.901","MEAN_MOTION_DDOT":"0.0000000000000","ELEMENT_SET_NO":"999"},{"GP_ID":"222974068","BSTAR":"0.00018135000000","TLE_LINE1":"1 50206U 21125BC  23013.94432435  .00002599  00000-0  18135-3 0  9993","REV_AT_EPOCH":"6093","CLASSIFICATION_TYPE":"U","OBJECT_NAME":"STARLINK-3258","LAUNCH_DATE":"2021-12-18","COUNTRY_CODE":"US","APOAPSIS":"541.329","TLE_LINE2":"2 50206  53.2138   5.0343 0002263  41.2811 318.8351 15.08834033 60934","OBJECT_ID":"2021-125BC","PERIOD":"95.438","MEAN_MOTION_DOT":"0.00002599","NORAD_CAT_ID":"50206","INCLINATION":"53.2138","MEAN_MOTION":"15.08834033","EPOCH":"2023-01-13T22:39:49.623840","OBJECT_TYPE":"PAYLOAD","SITE":"AFWTR","DECAY_DATE":null,"FILE":"3743722","PERIAPSIS":"538.198","REF_FRAME":"TEME","MEAN_ELEMENT_THEORY":"SGP4","MEAN_MOTION_DDOT":"0.0000000000000","SEMIMAJOR_AXIS":"6917.899","EPHEMERIS_TYPE":"0","ELEMENT_SET_NO":"999","ARG_OF_PERICENTER":"41.2811","MEAN_ANOMALY":"318.8351","RA_OF_ASC_NODE":"5.0343","CENTER_NAME":"EARTH","RCS_SIZE":"LARGE","ECCENTRICITY":"0.00022630","TIME_SYSTEM":"UTC"},{"CENTER_NAME":"EARTH","RCS_SIZE":"LARGE","ECCENTRICITY":"0.00023280","TIME_SYSTEM":"UTC","MEAN_ELEMENT_THEORY":"SGP4","REF_FRAME":"TEME","PERIAPSIS":"538.167","EPHEMERIS_TYPE":"0","SEMIMAJOR_AXIS":"6917.913","MEAN_MOTION_DDOT":"0.0000000000000","ELEMENT_SET_NO":"999","MEAN_ANOMALY":"317.7290","ARG_OF_PERICENTER":"42.3882","RA_OF_ASC_NODE":"6.1963","PERIOD":"95.438","TLE_LINE2":"2 50207  53.2161   6.1963 0002328  42.3882 317.7290 15.08829373 60967","OBJECT_ID":"2021-125BD","MEAN_MOTION_DOT":"0.00000833","NORAD_CAT_ID":"50207","INCLINATION":"53.2161","EPOCH":"2023-01-13T16:23:34.776960","MEAN_MOTION":"15.08829373","OBJECT_TYPE":"PAYLOAD","SITE":"AFWTR","FILE":"3743722","DECAY_DATE":null,"BSTAR":"0.00007049000000","GP_ID":"222974318","TLE_LINE1":"1 50207U 21125BD  23013.68304140  .00000833  00000-0  70490-4 0  9998","CLASSIFICATION_TYPE":"U","REV_AT_EPOCH":"6096","OBJECT_NAME":"STARLINK-3262","COUNTRY_CODE":"US","LAUNCH_DATE":"2021-12-18","APOAPSIS":"541.388"},{"APOAPSIS":"541.656","COUNTRY_CODE":"US","LAUNCH_DATE":"2022-01-06","TLE_LINE1":"1 50803U 22001A   23013.07123134 -.00001741  00000-0 -91299-4 0  9990","OBJECT_NAME":"STARLINK-3321","CLASSIFICATION_TYPE":"U","REV_AT_EPOCH":"5655","BSTAR":"-0.00009129900000","GP_ID":"222942567","SITE":"AFETR","FILE":"3743417","DECAY_DATE":null,"EPOCH":"2023-01-13T01:42:34.387776","MEAN_MOTION":"15.08835686","OBJECT_TYPE":"PAYLOAD","INCLINATION":"53.2198","TLE_LINE2":"2 50803  53.2198 298.9453 0002743  25.9612 334.1517 15.08835686 56552","PERIOD":"95.438","MEAN_MOTION_DOT":"-0.00001741","OBJECT_ID":"2022-001A","NORAD_CAT_ID":"50803","ARG_OF_PERICENTER":"25.9612","MEAN_ANOMALY":"334.1517","RA_OF_ASC_NODE":"298.9453","EPHEMERIS_TYPE":"0","MEAN_MOTION_DDOT":"0.0000000000000","SEMIMAJOR_AXIS":"6917.894","ELEMENT_SET_NO":"999","MEAN_ELEMENT_THEORY":"SGP4","REF_FRAME":"TEME","PERIAPSIS":"537.861","TIME_SYSTEM":"UTC","ECCENTRICITY":"0.00027430","RCS_SIZE":"LARGE","CENTER_NAME":"EARTH"},{"CENTER_NAME":"EARTH","RCS_SIZE":"LARGE","ECCENTRICITY":"0.00025200","TIME_SYSTEM":"UTC","MEAN_ELEMENT_THEORY":"SGP4","PERIAPSIS":"538.004","REF_FRAME":"TEME","EPHEMERIS_TYPE":"0","MEAN_MOTION_DDOT":"0.0000000000000","SEMIMAJOR_AXIS":"6917.882","ELEMENT_SET_NO":"999","MEAN_ANOMALY":"319.8779","ARG_OF_PERICENTER":"40.2399","RA_OF_ASC_NODE":"285.8267","TLE_LINE2":"2 50804  53.2138 285.8267 0002520  40.2399 319.8779 15.08839435 56792","PERIOD":"95.438","MEAN_MOTION_DOT":"0.00004917","OBJECT_ID":"2022-001B","NORAD_CAT_ID":"50804","INCLINATION":"53.2138","EPOCH":"2023-01-13T18:25:27.818112","MEAN_MOTION":"15.08839435","OBJECT_TYPE":"PAYLOAD","SITE":"AFETR","DECAY_DATE":null,"FILE":"3743722","BSTAR":"0.00032680000000","GP_ID":"222973588","TLE_LINE1":"1 50804U 22001B   23013.76768308  .00004917  00000-0  32680-3 0  9999","OBJECT_NAME":"STARLINK-3323","CLASSIFICATION_TYPE":"U","REV_AT_EPOCH":"5679","LAUNCH_DATE":"2022-01-06","COUNTRY_CODE":"US","APOAPSIS":"541.490"},{"MEAN_ELEMENT_THEORY":"SGP4","REF_FRAME":"TEME","PERIAPSIS":"538.882","ARG_OF_PERICENTER":"91.8828","MEAN_ANOMALY":"268.2308","RA_OF_ASC_NODE":"285.5386","EPHEMERIS_TYPE":"0","MEAN_MOTION_DDOT":"0.0000000000000","SEMIMAJOR_AXIS":"6917.887","ELEMENT_SET_NO":"999","RCS_SIZE":"LARGE","CENTER_NAME":"EARTH","TIME_SYSTEM":"UTC","ECCENTRICITY":"0.00012580","TLE_LINE1":"1 50805U 22001C   23013.83024510  .00005101  00000-0  33837-3 0  9999","OBJECT_NAME":"STARLINK-3333","CLASSIFICATION_TYPE":"U","REV_AT_EPOCH":"5680","BSTAR":"0.00033837000000","GP_ID":"222974836","APOAPSIS":"540.622","COUNTRY_CODE":"US","LAUNCH_DATE":"2022-01-06","INCLINATION":"53.2127","PERIOD":"95.438","TLE_LINE2":"2 50805  53.2127 285.5386 0001258  91.8828 268.2308 15.08837801 56808","OBJECT_ID":"2022-001C","MEAN_MOTION_DOT":"0.00005101","NORAD_CAT_ID":"50805","SITE":"AFETR","DECAY_DATE":null,"FILE":"3743722","EPOCH":"2023-01-13T19:55:33.176640","MEAN_MOTION":"15.08837801","OBJECT_TYPE":"PAYLOAD"},{"OBJECT_ID":"2022-001D","TLE_LINE2":"2 50806  53.2171 285.5443 0002190  45.7344 314.3828 15.08837763 56806","PERIOD":"95.438","MEAN_MOTION_DOT":"0.00003557","NORAD_CAT_ID":"50806","INCLINATION":"53.2171","MEAN_MOTION":"15.08837763","EPOCH":"2023-01-13T19:50:15.095040","OBJECT_TYPE":"PAYLOAD","SITE":"AFETR","FILE":"3743722","DECAY_DATE":null,"GP_ID":"222974584","BSTAR":"0.00024152000000","TLE_LINE1":"1 50806U 22001D   23013.82656360  .00003557  00000-0  24152-3 0  9996","OBJECT_NAME":"STARLINK-3335","CLASSIFICATION_TYPE":"U","REV_AT_EPOCH":"5680","COUNTRY_CODE":"US","LAUNCH_DATE":"2022-01-06","APOAPSIS":"541.267","CENTER_NAME":"EARTH","RCS_SIZE":"LARGE","ECCENTRICITY":"0.00021900","TIME_SYSTEM":"UTC","PERIAPSIS":"538.237","REF_FRAME":"TEME","MEAN_ELEMENT_THEORY":"SGP4","MEAN_MOTION_DDOT":"0.0000000000000","SEMIMAJOR_AXIS":"6917.887","EPHEMERIS_TYPE":"0","ELEMENT_SET_NO":"999","MEAN_ANOMALY":"314.3828","ARG_OF_PERICENTER":"45.7344","RA_OF_ASC_NODE":"285.5443"},{"ELEMENT_SET_NO":"999","SEMIMAJOR_AXIS":"6917.898","MEAN_MOTION_DDOT":"0.0000000000000","EPHEMERIS_TYPE":"0","RA_OF_ASC_NODE":"287.1059","MEAN_ANOMALY":"276.6759","ARG_OF_PERICENTER":"83.4410","PERIAPSIS":"538.685","REF_FRAME":"TEME","MEAN_ELEMENT_THEORY":"SGP4","ECCENTRICITY":"0.00015580","TIME_SYSTEM":"UTC","CENTER_NAME":"EARTH","RCS_SIZE":"LARGE","COUNTRY_CODE":"US","LAUNCH_DATE":"2022-01-06","APOAPSIS":"540.841","GP_ID":"222942066","BSTAR":"0.00018252000000","CLASSIFICATION_TYPE":"U","OBJECT_NAME":"STARLINK-3353","REV_AT_EPOCH":"5675","TLE_LINE1":"1 50807U 22001E   23013.48064581  .00002618  00000-0  18252-3 0  9998","OBJECT_TYPE":"PAYLOAD","MEAN_MOTION":"15.08834186","EPOCH":"2023-01-13T11:32:07.797984","FILE":"3743417","DECAY_DATE":null,"SITE":"AFETR","NORAD_CAT_ID":"50807","TLE_LINE2":"2 50807  53.2135 287.1059 0001558  83.4410 276.6759 15.08834186 56751","MEAN_MOTION_DOT":"0.00002618","PERIOD":"95.438","OBJECT_ID":"2022-001E","INCLINATION":"53.2135"},{"ECCENTRICITY":"0.00023940","TIME_SYSTEM":"UTC","CENTER_NAME":"EARTH","RCS_SIZE":"LARGE","SEMIMAJOR_AXIS":"6917.924","MEAN_MOTION_DDOT":"0.0000000000000","EPHEMERIS_TYPE":"0","ELEMENT_SET_NO":"999","MEAN_ANOMALY":"317.9224","ARG_OF_PERICENTER":"42.1952","RA_OF_ASC_NODE":"287.0715","PERIAPSIS":"538.133","REF_FRAME":"TEME","MEAN_ELEMENT_THEORY":"SGP4","MEAN_MOTION":"15.08825834","EPOCH":"2023-01-13T11:42:43.045344","OBJECT_TYPE":"PAYLOAD","SITE":"AFETR","FILE":"3743510","DECAY_DATE":null,"TLE_LINE2":"2 50808  53.2164 287.0715 0002394  42.1952 317.9224 15.08825834 58000","PERIOD":"95.438","OBJECT_ID":"2022-001F","MEAN_MOTION_DOT":"0.00007594","NORAD_CAT_ID":"50808","INCLINATION":"53.2164","LAUNCH_DATE":"2022-01-06","COUNTRY_CODE":"US","APOAPSIS":"541.445","GP_ID":"222946652","BSTAR":"0.00049491000000","TLE_LINE1":"1 50808U 22001F   23013.48799821  .00007594  00000-0  49491-3 0  9998","OBJECT_NAME":"STARLINK-3355","CLASSIFICATION_TYPE":"U","REV_AT_EPOCH":"5800"}];
